NORAD_CAT_ID,OBJECT_NAME,OBJECT_TYPE,EPOCH,MEAN_MOTION,ECCENTRICITY,INCLINATION,RA_OF_ASC_NODE,ARG_OF_PERICENTER,MEAN_ANOMALY,BSTAR,MEAN_MOTION_DOT,MEAN_MOTION_DDOT,TLE_LINE0,TLE_LINE1,TLE_LINE2,SEMIMAJOR_AXIS,PERIOD,APOGEE,PERIGEE,DECAYED
53149.0,STARLINK-4021,PAYLOAD,2023-09-06 04:49:26,15.08835984,0.0001518,53.217,313.91,74.2065,285.9094,0.00031803,4.777e-05,0.0,0 STARLINK-4021,1 53149U 22083T   23249.20099631  .00004777  00000-0  31803-3 0  9990,2 53149  53.2170 313.9100 0001518  74.2065 285.9094 15.08835984 63780,6917.893,95.438,540.808,538.708,0.0
53149.0,STARLINK-4021,PAYLOAD,2023-09-06 20:43:17,15.08845034,0.0001488,53.2175,310.9354,73.5714,286.5441,0.00026449,3.924e-05,0.0,0 STARLINK-4021,1 53149U 22083T   23249.86339441  .00003924  00000-0  26449-3 0  9991,2 53149  53.2175 310.9354 0001488  73.5714 286.5441 15.08845034 63254,6917.865,95.437,540.759,538.701,0.0
53149.0,STARLINK-4021,PAYLOAD,2023-09-07 07:50:59,15.08853835,0.0001407,53.2168,308.8557,91.48,268.6353,-0.00019112,-3.33e-05,0.0,0 STARLINK-4021,1 53149U 22083T   23250.32707825 -.00003330  00000-0 -19112-3 0  9991,2 53149  53.2168 308.8557 0001407  91.4800 268.6353 15.08853835 63951,6917.838,95.437,540.676,538.73,0.0
53149.0,STARLINK-4021,PAYLOAD,2023-09-07 09:26:22,15.08851344,0.0001412,53.2172,308.5584,89.802,270.3134,-0.00016963,-2.987e-05,0.0,0 STARLINK-4021,1 53149U 22083T   23250.39331844 -.00002987  00000-0 -16963-3 0  9990,2 53149  53.2172 308.5584 0001412  89.8020 270.3134 15.08851344 63336,6917.846,95.437,540.688,538.734,0.0
53149.0,STARLINK-4021,PAYLOAD,2023-09-07 23:44:51,15.08841877,0.0001508,53.2171,305.8818,87.4507,272.6658,3.2812e-06,-2.36e-06,0.0,0 STARLINK-4021,1 53149U 22083T   23250.98947919 -.00000236  00000-0  32812-5 0  9998,2 53149  53.2171 305.8818 0001508  87.4507 272.6658 15.08841877 64051,6917.875,95.437,540.783,538.696,0.0
53149.0,STARLINK-4021,PAYLOAD,2023-09-08 12:27:55,15.08842469,0.0001522,53.2178,303.5047,84.6831,275.4335,2.6334e-05,1.31e-06,0.0,0 STARLINK-4021,1 53149U 22083T   23251.51939776  .00000131  00000-0  26334-4 0  9994,2 53149  53.2178 303.5047 0001522  84.6831 275.4335 15.08842469 63502,6917.873,95.437,540.791,538.685,0.0
53149.0,STARLINK-4021,PAYLOAD,2023-09-08 20:24:51,15.08834658,0.0001472,53.2172,302.0164,83.4288,276.6872,7.1076e-05,8.43e-06,0.0,0 STARLINK-4021,1 53149U 22083T   23251.85060110  .00000843  00000-0  71076-4 0  9991,2 53149  53.2172 302.0164 0001472  83.4288 276.6872 15.08834658 63552,6917.897,95.438,540.78,538.743,0.0
53149.0,STARLINK-4021,PAYLOAD,2023-09-09 02:46:24,15.08835134,0.0001478,53.2172,300.827,83.751,276.365,6.8663e-05,8.05e-06,0.0,0 STARLINK-4021,1 53149U 22083T   23252.11556192  .00000805  00000-0  68663-4 0  9997,2 53149  53.2172 300.8270 0001478  83.7510 276.3650 15.08835134 64229,6917.895,95.438,540.783,538.738,0.0
53149.0,STARLINK-4021,PAYLOAD,2023-09-09 10:43:20,15.08838465,0.0001484,53.2172,299.3401,82.2101,277.906,8.106e-05,1.002e-05,0.0,0 STARLINK-4021,1 53149U 22083T   23252.44676038  .00001002  00000-0  81060-4 0  9991,2 53149  53.2172 299.3401 0001484  82.2101 277.9060 15.08838465 63641,6917.885,95.438,540.777,538.723,0.0
53149.0,STARLINK-4021,PAYLOAD,2023-09-10 10:34:06,15.08842649,0.0001494,53.2173,294.8801,85.5481,274.5682,0.00010385,1.365e-05,0.0,0 STARLINK-4021,1 53149U 22083T   23253.44035875  .00001365  00000-0  10385-3 0  9993,2 53149  53.2173 294.8801 0001494  85.5481 274.5682 15.08842649 64423,6917.872,95.437,540.771,538.704,0.0
53149.0,STARLINK-4021,PAYLOAD,2023-09-10 12:09:29,15.08846008,0.0001505,53.2175,294.5822,85.7696,274.3469,9.964e-05,1.298e-05,0.0,0 STARLINK-4021,1 53149U 22083T   23253.50659669  .00001298  00000-0  99640-4 0  9990,2 53149  53.2175 294.5822 0001505  85.7696 274.3469 15.08846008 63803,6917.862,95.437,540.768,538.686,0.0
53149.0,STARLINK-4021,PAYLOAD,2023-09-11 02:27:58,15.08837229,0.0001478,53.2173,291.9056,89.9005,270.2156,4.6334e-05,4.49e-06,0.0,0 STARLINK-4021,1 53149U 22083T   23254.10276373  .00000449  00000-0  46334-4 0  9993,2 53149  53.2173 291.9056 0001478  89.9005 270.2156 15.08837229 64523,6917.889,95.438,540.776,538.731,0.0
53149.0,STARLINK-4021,PAYLOAD,2023-09-11 10:24:54,15.08840958,0.0001467,53.2169,290.418,87.6422,272.4738,3.7573e-05,3.1e-06,0.0,0 STARLINK-4021,1 53149U 22083T   23254.43396218  .00000310  00000-0  37573-4 0  9992,2 53149  53.2169 290.4180 0001467  87.6422 272.4738 15.08840958 63944,6917.877,95.437,540.757,538.728,0.0
53149.0,STARLINK-4021,PAYLOAD,2023-09-12 08:40:18,15.08845099,0.0001432,53.2167,286.2544,94.6132,265.5024,3.306e-05,2.38e-06,0.0,0 STARLINK-4021,1 53149U 22083T   23255.36131970  .00000238  00000-0  33060-4 0  9993,2 53149  53.2167 286.2544 0001432  94.6132 265.5024 15.08845099 64715,6917.865,95.437,540.72,538.739,0.0
53149.0,STARLINK-4021,PAYLOAD,2023-09-12 11:51:04,15.08845611,0.0001466,53.2168,285.6593,96.4762,263.6397,5.6594e-05,6.13e-06,0.0,0 STARLINK-4021,1 53149U 22083T   23255.49379839  .00000613  00000-0  56594-4 0  9999,2 53149  53.2168 285.6593 0001466  96.4762 263.6397 15.08845611 64104,6917.863,95.437,540.742,538.714,0.0
53149.0,STARLINK-4021,PAYLOAD,2023-09-13 08:31:04,15.088495,0.000145,53.2165,281.7931,95.8312,264.2845,0.00013637,1.884e-05,0.0,0 STARLINK-4021,1 53149U 22083T   23256.35491370  .00001884  00000-0  13637-3 0  9991,2 53149  53.2165 281.7931 0001450  95.8312 264.2845 15.08849500 64231,6917.851,95.437,540.719,538.713,0.0
53149.0,STARLINK-4021,PAYLOAD,2023-09-14 08:21:53,15.08828043,0.0001501,53.2173,277.3311,98.655,261.4612,-5.2176e-05,-1.118e-05,0.0,0 STARLINK-4021,1 53149U 22083T   23257.34853579 -.00001118  00000-0 -52176-4 0  9998,2 53149  53.2173 277.3311 0001501  98.6550 261.4612 15.08828043 65012,6917.917,95.438,540.82,538.744,0.0
53149.0,STARLINK-4021,PAYLOAD,2023-09-14 11:32:39,15.08829123,0.0001383,53.2167,276.7382,91.938,268.177,-5.1044e-05,-1.1e-05,0.0,0 STARLINK-4021,1 53149U 22083T   23257.48101623 -.00001100  00000-0 -51044-4 0  9993,2 53149  53.2167 276.7382 0001383  91.9380 268.1770 15.08829123 64402,6917.914,95.438,540.735,538.822,0.0
53149.0,STARLINK-4021,PAYLOAD,2023-09-14 17:54:12,15.08833168,0.0001436,53.2172,275.5493,89.4985,270.6172,-2.4343e-05,-6.75e-06,0.0,0 STARLINK-4021,1 53149U 22083T   23257.74597467 -.00000675  00000-0 -24343-4 0  9995,2 53149  53.2172 275.5493 0001436  89.4985 270.6172 15.08833168 64442,6917.901,95.438,540.76,538.773,0.0
53149.0,STARLINK-4021,PAYLOAD,2023-09-15 06:37:16,15.08842157,0.0001335,53.2163,273.1708,76.3048,283.8093,1.2187e-05,-9.4e-07,0.0,0 STARLINK-4021,1 53149U 22083T   23258.27589085 -.00000094  00000-0  12187-4 0  9998,2 53149  53.2163 273.1708 0001335  76.3048 283.8093 15.08842157 65153,6917.874,95.437,540.662,538.815,0.0
53149.0,STARLINK-4021,PAYLOAD,2023-09-15 11:23:26,15.08837478,0.0001427,53.2165,272.2784,90.1748,269.9408,0.00013511,1.863e-05,0.0,0 STARLINK-4021,1 53149U 22083T   23258.47461055  .00001863  00000-0  13511-3 0  9991,2 53149  53.2165 272.2784 0001427  90.1748 269.9408 15.08837478 64550,6917.888,95.438,540.74,538.766,0.0
53149.0,STARLINK-4021,PAYLOAD,2023-09-16 09:38:50,15.08848821,0.0001516,53.2158,268.1151,83.1954,276.9211,0.00034593,5.223e-05,0.0,0 STARLINK-4021,1 53149U 22083T   23259.40196804  .00005223  00000-0  34593-3 0  9999,2 53149  53.2158 268.1151 0001516  83.1954 276.9211 15.08848821 65324,6917.853,95.437,540.767,538.67,0.0
53149.0,STARLINK-4021,PAYLOAD,2023-09-16 11:14:13,15.08849766,0.000152,53.2158,267.8177,83.3362,276.7803,0.00035823,5.419e-05,0.0,0 STARLINK-4021,1 53149U 22083T   23259.46820790  .00005419  00000-0  35823-3 0  9997,2 53149  53.2158 267.8177 0001520  83.3362 276.7803 15.08849766 64703,6917.851,95.437,540.767,538.664,0.0
53149.0,STARLINK-4021,PAYLOAD,2023-09-16 17:35:45,15.08842985,0.0001583,53.2158,266.6275,87.7528,272.3645,0.00011708,1.576e-05,0.0,0 STARLINK-4021,1 53149U 22083T   23259.73316987  .00001576  00000-0  11708-3 0  9991,2 53149  53.2158 266.6275 0001583  87.7528 272.3645 15.08842985 65376,6917.871,95.437,540.831,538.641,0.0
53149.0,STARLINK-4021,PAYLOAD,2023-09-17 09:29:37,15.0884618,0.000165,53.2165,263.6538,87.1903,272.9278,0.00010738,1.422e-05,0.0,0 STARLINK-4021,1 53149U 22083T   23260.39556892  .00001422  00000-0  10738-3 0  9998,2 53149  53.2165 263.6538 0001650  87.1903 272.9278 15.08846180 64849,6917.861,95.437,540.868,538.585,0.0
53149.0,STARLINK-4021,PAYLOAD,2023-09-17 23:48:05,15.08844984,0.0001598,53.2158,260.9781,87.2348,272.8827,7.3495e-05,8.82e-06,0.0,0 STARLINK-4021,1 53149U 22083T   23260.99172861  .00000882  00000-0  73495-4 0  9993,2 53149  53.2158 260.9781 0001598  87.2348 272.8827 15.08844984 65565,6917.865,95.437,540.836,538.625,0.0
53149.0,STARLINK-4021,PAYLOAD,2023-09-18 07:45:08,15.0868236,0.0001244,53.2161,259.4915,87.8289,272.2846,-0.0022277,-0.00035415,0.0,0 STARLINK-4021,1 53149U 22083T   23261.32301989 -.00035415  00000-0 -22277-2 0  9998,2 53149  53.2161 259.4915 0001244  87.8289 272.2846 15.08682360 65618,6918.362,95.448,541.088,539.367,0.0
53149.0,STARLINK-4021,PAYLOAD,2023-09-18 12:31:31,15.08594417,0.0001221,53.2169,258.6005,78.4395,281.6734,-0.002039,-0.00032376,0.0,0 STARLINK-4021,1 53149U 22083T   23261.52188670 -.00032376  00000-0 -20390-2 0  9997,2 53149  53.2169 258.6005 0001221  78.4395 281.6734 15.08594417 65015,6918.631,95.453,541.341,539.651,0.0
53149.0,STARLINK-4021,PAYLOAD,2023-09-18 17:17:50,15.08488861,0.0001468,53.2178,257.7088,79.4185,280.6972,-0.0028048,-0.00044227,0.0,0 STARLINK-4021,1 53149U 22083T   23261.72072491 -.00044227  00000-0 -28048-2 0  9998,2 53149  53.2178 257.7088 0001468  79.4185 280.6972 15.08488861 65677,6918.954,95.46,541.835,539.803,0.0
53149.0,STARLINK-4021,PAYLOAD,2023-09-19 10:47:56,15.08032098,0.0001141,53.2166,254.4416,100.7178,259.3943,-0.0059589,-0.00091867,0.0,0 STARLINK-4021,1 53149U 22083T   23262.44996088 -.00091867  00000-0 -59589-2 0  9991,2 53149  53.2166 254.4416 0001141 100.7178 259.3943 15.08032098 65781,6920.351,95.489,543.006,541.426,0.0
